[{"OBJECT_NAME":"STARLINK-35474","OBJECT_ID":"2025-259R","EPOCH":"2026-03-09T14:03:22.642272","MEAN_MOTION":15.27586274,"ECCENTRICITY":0.0001422,"INCLINATION":42.9986,"RA_OF_ASC_NODE":275.0808,"ARG_OF_PERICENTER":254.6465,"MEAN_ANOMALY":105.423,"EPHEMERIS_TYPE":0,"CLASSIFICATION_TYPE":"U","NORAD_CAT_ID":66437,"ELEMENT_SET_NO":999,"REV_AT_EPOCH":1947,"BSTAR":0.00094844,"MEAN_MOTION_DOT":0.00025934,"MEAN_MOTION_DDOT":0},{"OBJECT_NAME":"TRANSPORTER-1 OBJECT AA","OBJECT_ID":"2021-006AA","EPOCH":"2026-03-09T22:58:14.761920","MEAN_MOTION":15.29982294,"ECCENTRICITY":0.00086604,"INCLINATION":97.2381,"RA_OF_ASC_NODE":112.457,"ARG_OF_PERICENTER":185.709,"MEAN_ANOMALY":174.4054,"EPHEMERIS_TYPE":0,"CLASSIFICATION_TYPE":"U","NORAD_CAT_ID":47437,"ELEMENT_SET_NO":999,"REV_AT_EPOCH":28414,"BSTAR":0.0002197941,"MEAN_MOTION_DOT":6.312e-5,"MEAN_MOTION_DDOT":0}]
